CCSDS_OMM_VERS = 2.0
CREATION_DATE  = 
ORIGINATOR     = 

OBJECT_NAME    = GUOWANG GROUP 20 OBJECT G
OBJECT_ID      = 2026-047G
CENTER_NAME    = EARTH
REF_FRAME      = TEME
TIME_SYSTEM    = UTC
MEAN_ELEMENT_THEORY = SGP/SGP4

EPOCH          = 2026-03-17T04:56:24.154368
MEAN_MOTION    = 14.06047300
ECCENTRICITY   = .0007397
INCLINATION    = 50.0115
RA_OF_ASC_NODE = 39.8149
ARG_OF_PERICENTER = 285.0528
MEAN_ANOMALY   = 74.9558

EPHEMERIS_TYPE = 0
CLASSIFICATION_TYPE = U
NORAD_CAT_ID   = 68135
ELEMENT_SET_NO = 999
REV_AT_EPOCH   = 62
BSTAR          = .61465E-5
MEAN_MOTION_DOT = -.142E-5
MEAN_MOTION_DDOT = 0

CCSDS_OMM_VERS = 2.0
CREATION_DATE  = 
ORIGINATOR     = 

OBJECT_NAME    = GUOWANG GROUP 20 OBJECT H
OBJECT_ID      = 2026-047H
CENTER_NAME    = EARTH
REF_FRAME      = TEME
TIME_SYSTEM    = UTC
MEAN_ELEMENT_THEORY = SGP/SGP4

EPOCH          = 2026-03-17T03:13:37.407936
MEAN_MOTION    = 14.06144330
ECCENTRICITY   = .0007493
INCLINATION    = 50.0094
RA_OF_ASC_NODE = 40.1007
ARG_OF_PERICENTER = 290.5420
MEAN_ANOMALY   = 69.4681

EPHEMERIS_TYPE = 0
CLASSIFICATION_TYPE = U
NORAD_CAT_ID   = 68136
ELEMENT_SET_NO = 999
REV_AT_EPOCH   = 60
BSTAR          = .60715E-5
MEAN_MOTION_DOT = -.142E-5
MEAN_MOTION_DDOT = 0

CCSDS_OMM_VERS = 2.0
CREATION_DATE  = 
ORIGINATOR     = 

OBJECT_NAME    = GUOWANG GROUP 20 OBJECT J
OBJECT_ID      = 2026-047J
CENTER_NAME    = EARTH
REF_FRAME      = TEME
TIME_SYSTEM    = UTC
MEAN_ELEMENT_THEORY = SGP/SGP4

EPOCH          = 2026-03-17T04:55:23.784960
MEAN_MOTION    = 14.06272548
ECCENTRICITY   = .0005826
INCLINATION    = 50.0071
RA_OF_ASC_NODE = 39.8063
ARG_OF_PERICENTER = 285.3319
MEAN_ANOMALY   = 74.6942

EPHEMERIS_TYPE = 0
CLASSIFICATION_TYPE = U
NORAD_CAT_ID   = 68137
ELEMENT_SET_NO = 999
REV_AT_EPOCH   = 62
BSTAR          = .69524E-5
MEAN_MOTION_DOT = -.141E-5
MEAN_MOTION_DDOT = 0

CCSDS_OMM_VERS = 2.0
CREATION_DATE  = 
ORIGINATOR     = 

OBJECT_NAME    = CZ-8A R/B
OBJECT_ID      = 2026-047K
CENTER_NAME    = EARTH
REF_FRAME      = TEME
TIME_SYSTEM    = UTC
MEAN_ELEMENT_THEORY = SGP/SGP4

EPOCH          = 2026-03-17T04:29:50.436384
MEAN_MOTION    = 14.12227843
ECCENTRICITY   = .004474
INCLINATION    = 49.9543
RA_OF_ASC_NODE = 39.6657
ARG_OF_PERICENTER = 164.2331
MEAN_ANOMALY   = 195.9980

EPHEMERIS_TYPE = 0
CLASSIFICATION_TYPE = U
NORAD_CAT_ID   = 68138
ELEMENT_SET_NO = 999
REV_AT_EPOCH   = 61
BSTAR          = -.38223E-4
MEAN_MOTION_DOT = -.226E-5
MEAN_MOTION_DDOT = 0

CCSDS_OMM_VERS = 2.0
CREATION_DATE  = 
ORIGINATOR     = 

OBJECT_NAME    = SHIYAN-30 03
OBJECT_ID      = 2026-048A
CENTER_NAME    = EARTH
REF_FRAME      = TEME
TIME_SYSTEM    = UTC
MEAN_ELEMENT_THEORY = SGP/SGP4

EPOCH          = 2026-03-17T00:00:36.264672
MEAN_MOTION    = 14.92820153
ECCENTRICITY   = .0004654
INCLINATION    = 34.9995
RA_OF_ASC_NODE = 100.2235
ARG_OF_PERICENTER = 334.6165
MEAN_ANOMALY   = 25.4311

EPHEMERIS_TYPE = 0
CLASSIFICATION_TYPE = U
NORAD_CAT_ID   = 68139
ELEMENT_SET_NO = 999
REV_AT_EPOCH   = 59
BSTAR          = .23697E-3
MEAN_MOTION_DOT = .2472E-4
MEAN_MOTION_DDOT = 0

CCSDS_OMM_VERS = 2.0
CREATION_DATE  = 
ORIGINATOR     = 

OBJECT_NAME    = SHIYAN-30 04
OBJECT_ID      = 2026-048B
CENTER_NAME    = EARTH
REF_FRAME      = TEME
TIME_SYSTEM    = UTC
MEAN_ELEMENT_THEORY = SGP/SGP4

EPOCH          = 2026-03-17T03:14:29.934816
MEAN_MOTION    = 14.91676766
ECCENTRICITY   = .0002531
INCLINATION    = 34.9907
RA_OF_ASC_NODE = 99.4307
ARG_OF_PERICENTER = 269.4181
MEAN_ANOMALY   = 90.6233

EPHEMERIS_TYPE = 0
CLASSIFICATION_TYPE = U
NORAD_CAT_ID   = 68140
ELEMENT_SET_NO = 999
REV_AT_EPOCH   = 61
BSTAR          = .19285E-3
MEAN_MOTION_DOT = .1949E-4
MEAN_MOTION_DDOT = 0

CCSDS_OMM_VERS = 2.0
CREATION_DATE  = 
ORIGINATOR     = 

OBJECT_NAME    = CZ-2D R/B
OBJECT_ID      = 2026-048C
CENTER_NAME    = EARTH
REF_FRAME      = TEME
TIME_SYSTEM    = UTC
MEAN_ELEMENT_THEORY = SGP/SGP4

EPOCH          = 2026-03-17T04:38:35.105568
MEAN_MOTION    = 14.95523529
ECCENTRICITY   = .0015267
INCLINATION    = 35.1292
RA_OF_ASC_NODE = 99.1617
ARG_OF_PERICENTER = 29.5622
MEAN_ANOMALY   = 330.5947

EPHEMERIS_TYPE = 0
CLASSIFICATION_TYPE = U
NORAD_CAT_ID   = 68141
ELEMENT_SET_NO = 999
REV_AT_EPOCH   = 62
BSTAR          = .13085E-3
MEAN_MOTION_DOT = .1449E-4
MEAN_MOTION_DDOT = 0

CCSDS_OMM_VERS = 2.0
CREATION_DATE  = 
ORIGINATOR     = 

OBJECT_NAME    = YAOGAN-50 02
OBJECT_ID      = 2026-051A
CENTER_NAME    = EARTH
REF_FRAME      = TEME
TIME_SYSTEM    = UTC
MEAN_ELEMENT_THEORY = SGP/SGP4

EPOCH          = 2026-03-16T16:05:34.496160
MEAN_MOTION    = 14.16075402
ECCENTRICITY   = .0148508
INCLINATION    = 141.9996
RA_OF_ASC_NODE = 239.7951
ARG_OF_PERICENTER = 128.5083
MEAN_ANOMALY   = 232.9054

EPHEMERIS_TYPE = 0
CLASSIFICATION_TYPE = U
NORAD_CAT_ID   = 68196
ELEMENT_SET_NO = 999
REV_AT_EPOCH   = 16
BSTAR          = .30372E-4
MEAN_MOTION_DOT = .272E-5
MEAN_MOTION_DDOT = 0

CCSDS_OMM_VERS = 2.0
CREATION_DATE  = 
ORIGINATOR     = 

OBJECT_NAME    = CZ-6A R/B
OBJECT_ID      = 2026-051B
CENTER_NAME    = EARTH
REF_FRAME      = TEME
TIME_SYSTEM    = UTC
MEAN_ELEMENT_THEORY = SGP/SGP4

EPOCH          = 2026-03-16T20:18:50.861664
MEAN_MOTION    = 14.56351721
ECCENTRICITY   = .0185602
INCLINATION    = 142.0310
RA_OF_ASC_NODE = 241.1321
ARG_OF_PERICENTER = 101.1577
MEAN_ANOMALY   = 261.0087

EPHEMERIS_TYPE = 0
CLASSIFICATION_TYPE = U
NORAD_CAT_ID   = 68197
ELEMENT_SET_NO = 999
REV_AT_EPOCH   = 20
BSTAR          = .99382E-4
MEAN_MOTION_DOT = .869E-5
MEAN_MOTION_DDOT = 0

CCSDS_OMM_VERS = 2.0
CREATION_DATE  = 
ORIGINATOR     = 

OBJECT_NAME    = 2026-052A
OBJECT_ID      = 2026-052A
CENTER_NAME    = EARTH
REF_FRAME      = TEME
TIME_SYSTEM    = UTC
MEAN_ELEMENT_THEORY = SGP/SGP4

EPOCH          = 2026-03-17T01:54:14.976864
MEAN_MOTION    = 15.09804425
ECCENTRICITY   = .0012413
INCLINATION    = 97.5387
RA_OF_ASC_NODE = 152.3170
ARG_OF_PERICENTER = 262.4488
MEAN_ANOMALY   = 97.5331

EPHEMERIS_TYPE = 0
CLASSIFICATION_TYPE = U
NORAD_CAT_ID   = 68198
ELEMENT_SET_NO = 999
REV_AT_EPOCH   = 14
BSTAR          = .64669E-4
MEAN_MOTION_DOT = .983E-5
MEAN_MOTION_DDOT = 0

CCSDS_OMM_VERS = 2.0
CREATION_DATE  = 
ORIGINATOR     = 

OBJECT_NAME    = 2026-052B
OBJECT_ID      = 2026-052B
CENTER_NAME    = EARTH
REF_FRAME      = TEME
TIME_SYSTEM    = UTC
MEAN_ELEMENT_THEORY = SGP/SGP4

EPOCH          = 2026-03-17T01:54:06.156288
MEAN_MOTION    = 15.09979416
ECCENTRICITY   = .0011511
INCLINATION    = 97.5386
RA_OF_ASC_NODE = 152.3161
ARG_OF_PERICENTER = 264.1577
MEAN_ANOMALY   = 95.8340

EPHEMERIS_TYPE = 0
CLASSIFICATION_TYPE = U
NORAD_CAT_ID   = 68199
ELEMENT_SET_NO = 999
REV_AT_EPOCH   = 14
BSTAR          = .64201E-4
MEAN_MOTION_DOT = .98E-5
MEAN_MOTION_DDOT = 0

