GUOWANG GROUP 20 OBJECT*
1 68135U 26047G   26076.20583512 -.00000142  00000+0  61465-5 0  9993
2 68135  50.0115  39.8149 0007397 285.0528  74.9558 14.06047300   628
GUOWANG GROUP 20 OBJECT*
1 68136U 26047H   26076.13446074 -.00000142  00000+0  60715-5 0  9994
2 68136  50.0094  40.1007 0007493 290.5420  69.4681 14.06144330   607
GUOWANG GROUP 20 OBJECT*
1 68137U 26047J   26076.20513640 -.00000141  00000+0  69524-5 0  9993
2 68137  50.0071  39.8063 0005826 285.3319  74.6942 14.06272548   620
CZ-8A R/B               
1 68138U 26047K   26076.18738931 -.00000226  00000+0 -38223-4 0  9999
2 68138  49.9543  39.6657 0044740 164.2331 195.9980 14.12227843   619
SHIYAN-30 03            
1 68139U 26048A   26076.00041973  .00002472  00000+0  23697-3 0  9996
2 68139  34.9995 100.2235 0004654 334.6165  25.4311 14.92820153   593
SHIYAN-30 04            
1 68140U 26048B   26076.13506869  .00001949  00000+0  19285-3 0  9998
2 68140  34.9907  99.4307 0002531 269.4181  90.6233 14.91676766   610
CZ-2D R/B               
1 68141U 26048C   26076.19346187  .00001449  00000+0  13085-3 0  9997
2 68141  35.1292  99.1617 0015267  29.5622 330.5947 14.95523529   628
YAOGAN-50 02            
1 68196U 26051A   26075.67053815  .00000272  00000+0  30372-4 0  9998
2 68196 141.9996 239.7951 0148508 128.5083 232.9054 14.16075402   162
CZ-6A R/B               
1 68197U 26051B   26075.84642201  .00000869  00000+0  99382-4 0  9999
2 68197 142.0310 241.1321 0185602 101.1577 261.0087 14.56351721   203
2026-052A               
1 68198U 26052A   26076.07934001  .00000983  00000+0  64669-4 0  9996
2 68198  97.5387 152.3170 0012413 262.4488  97.5331 15.09804425   148
2026-052B               
1 68199U 26052B   26076.07923792  .00000980  00000+0  64201-4 0  9991
2 68199  97.5386 152.3161 0011511 264.1577  95.8340 15.09979416   148
